STARLINK-4134           
1 53254U 22086N   26027.24062009  .00000523  00000+0  50927-4 0  9993
2 53254  53.2181  20.2023 0000841  87.3297 272.7791 15.08841123194821
STARLINK-4142           
1 53255U 22086P   26027.29118537  .00001058  00000+0  84562-4 0  9993
2 53255  53.2187  19.9659 0001380  83.0785 277.0364 15.08838551194816
STARLINK-4147           
1 53256U 22086Q   26027.22862453  .00000515  00000+0  50464-4 0  9991
2 53256  53.2183  20.2469 0001336  91.1813 268.9332 15.08842803194808
STARLINK-4144           
1 53257U 22086R   26027.28014917  .00000462  00000+0  47127-4 0  9995
2 53257  53.2202  20.0177 0002103 102.0542 258.0686 15.08835085194816
STARLINK-4127           
1 53258U 22086S   26027.28750595  .00000061  00000+0  21965-4 0  9992
2 53258  53.2187  19.9863 0001705  90.4297 269.6891 15.08835065194816
STARLINK-4140           
1 53259U 22086T   26027.24330037  .00000958  00000+0  78312-4 0  9997
2 53259  53.2183  19.8217 0001671  96.7292 263.3891 15.08837213194819
STARLINK-4062           
1 53261U 22086V   26027.13662266  .00001043  00000+0  83630-4 0  9995
2 53261  53.2196  20.6592 0001610  85.5495 274.5681 15.08837973194797
STARLINK-4085           
1 53262U 22086W   26027.01147200  .00008154  00000+0  52956-3 0  9995
2 53262  53.2190  21.2253 0001202 101.8210 258.2918 15.08859337194775
STARLINK-4130           
1 53263U 22086X   26027.26542293  .00008129  00000+0  52865-3 0  9995
2 53263  53.2197  20.0827 0001767 106.6028 253.5159 15.08812961194815
STARLINK-3950           
1 53264U 22086Y   26027.27278297  .00000259  00000+0  34376-4 0  9991
2 53264  53.2193  20.0502 0001516 104.5714 255.5446 15.08846165194817
STARLINK-4097           
1 53265U 22086Z   26027.25806551 -.00000730  00000+0 -27810-4 0  9991
2 53265  53.2187  20.1133 0001339  88.5405 271.5740 15.08830355194812
STARLINK-4058           
1 53266U 22086AA  26027.26174232  .00004369  00000+0  29239-3 0  9993
2 53266  53.2198  20.0973 0001642  82.7291 277.3888 15.08844887194814
STARLINK-4060           
1 53267U 22086AB  26027.25070329  .00003332  00000+0  22735-3 0  9998
2 53267  53.2184  20.1469 0001437  85.3620 274.7536 15.08842097194810
STARLINK-4109           
1 53268U 22086AC  26027.25438585  .00000911  00000+0  75359-4 0  9992
2 53268  53.2182  20.1295 0001413  93.6657 266.4497 15.08833704194811
STARLINK-4057           
1 53269U 22086AD  26027.17773600  .00354280  00000+0  20673-1 0  9991
2 53269  53.2191  10.4721 0001070  91.3531 268.7585 15.09739498194935
STARLINK-4122           
1 53272U 22086AG  26027.18171093 -.00001375  00000+0 -68287-4 0  9996
2 53272  53.2203  10.4588 0001558  95.6788 264.4382 15.08839031194937
