[{"OBJECT_NAME":"STARLINK-4134","OBJECT_ID":"2022-086N","EPOCH":"2026-01-27T05:46:29.575776","MEAN_MOTION":15.08841123,"ECCENTRICITY":8.411e-5,"INCLINATION":53.2181,"RA_OF_ASC_NODE":20.2023,"ARG_OF_PERICENTER":87.3297,"MEAN_ANOMALY":272.7791,"EPHEMERIS_TYPE":0,"CLASSIFICATION_TYPE":"U","NORAD_CAT_ID":53254,"ELEMENT_SET_NO":999,"REV_AT_EPOCH":19482,"BSTAR":5.0927072e-5,"MEAN_MOTION_DOT":5.23e-6,"MEAN_MOTION_DDOT":0},{"OBJECT_NAME":"STARLINK-4142","OBJECT_ID":"2022-086P","EPOCH":"2026-01-27T06:59:18.415968","MEAN_MOTION":15.08838551,"ECCENTRICITY":0.00013806,"INCLINATION":53.2187,"RA_OF_ASC_NODE":19.9659,"ARG_OF_PERICENTER":83.0785,"MEAN_ANOMALY":277.0364,"EPHEMERIS_TYPE":0,"CLASSIFICATION_TYPE":"U","NORAD_CAT_ID":53255,"ELEMENT_SET_NO":999,"REV_AT_EPOCH":19481,"BSTAR":8.4561816e-5,"MEAN_MOTION_DOT":1.058e-5,"MEAN_MOTION_DDOT":0},{"OBJECT_NAME":"STARLINK-4147","OBJECT_ID":"2022-086Q","EPOCH":"2026-01-27T05:29:13.159392","MEAN_MOTION":15.08842803,"ECCENTRICITY":0.0001336,"INCLINATION":53.2183,"RA_OF_ASC_NODE":20.2469,"ARG_OF_PERICENTER":91.1813,"MEAN_ANOMALY":268.9332,"EPHEMERIS_TYPE":0,"CLASSIFICATION_TYPE":"U","NORAD_CAT_ID":53256,"ELEMENT_SET_NO":999,"REV_AT_EPOCH":19480,"BSTAR":5.0463579e-5,"MEAN_MOTION_DOT":5.15e-6,"MEAN_MOTION_DDOT":0},{"OBJECT_NAME":"STARLINK-4144","OBJECT_ID":"2022-086R","EPOCH":"2026-01-27T06:43:24.888288","MEAN_MOTION":15.08835085,"ECCENTRICITY":0.00021033,"INCLINATION":53.2202,"RA_OF_ASC_NODE":20.0177,"ARG_OF_PERICENTER":102.0542,"MEAN_ANOMALY":258.0686,"EPHEMERIS_TYPE":0,"CLASSIFICATION_TYPE":"U","NORAD_CAT_ID":53257,"ELEMENT_SET_NO":999,"REV_AT_EPOCH":19481,"BSTAR":4.7126791e-5,"MEAN_MOTION_DOT":4.62e-6,"MEAN_MOTION_DDOT":0},{"OBJECT_NAME":"STARLINK-4127","OBJECT_ID":"2022-086S","EPOCH":"2026-01-27T06:54:00.514080","MEAN_MOTION":15.08835065,"ECCENTRICITY":0.0001705,"INCLINATION":53.2187,"RA_OF_ASC_NODE":19.9863,"ARG_OF_PERICENTER":90.4297,"MEAN_ANOMALY":269.6891,"EPHEMERIS_TYPE":0,"CLASSIFICATION_TYPE":"U","NORAD_CAT_ID":53258,"ELEMENT_SET_NO":999,"REV_AT_EPOCH":19481,"BSTAR":2.1964703e-5,"MEAN_MOTION_DOT":6.1e-7,"MEAN_MOTION_DDOT":0},{"OBJECT_NAME":"STARLINK-4140","OBJECT_ID":"2022-086T","EPOCH":"2026-01-27T05:50:21.151968","MEAN_MOTION":15.08837213,"ECCENTRICITY":0.00016714,"INCLINATION":53.2183,"RA_OF_ASC_NODE":19.8217,"ARG_OF_PERICENTER":96.7292,"MEAN_ANOMALY":263.3891,"EPHEMERIS_TYPE":0,"CLASSIFICATION_TYPE":"U","NORAD_CAT_ID":53259,"ELEMENT_SET_NO":999,"REV_AT_EPOCH":19481,"BSTAR":7.8311656e-5,"MEAN_MOTION_DOT":9.58e-6,"MEAN_MOTION_DDOT":0},{"OBJECT_NAME":"STARLINK-4062","OBJECT_ID":"2022-086V","EPOCH":"2026-01-27T03:16:44.197824","MEAN_MOTION":15.08837973,"ECCENTRICITY":0.00016105,"INCLINATION":53.2196,"RA_OF_ASC_NODE":20.6592,"ARG_OF_PERICENTER":85.5495,"MEAN_ANOMALY":274.5681,"EPHEMERIS_TYPE":0,"CLASSIFICATION_TYPE":"U","NORAD_CAT_ID":53261,"ELEMENT_SET_NO":999,"REV_AT_EPOCH":19479,"BSTAR":8.3630178e-5,"MEAN_MOTION_DOT":1.043e-5,"MEAN_MOTION_DDOT":0},{"OBJECT_NAME":"STARLINK-4085","OBJECT_ID":"2022-086W","EPOCH":"2026-01-27T00:16:31.180800","MEAN_MOTION":15.08859337,"ECCENTRICITY":0.00012022,"INCLINATION":53.219,"RA_OF_ASC_NODE":21.2253,"ARG_OF_PERICENTER":101.821,"MEAN_ANOMALY":258.2918,"EPHEMERIS_TYPE":0,"CLASSIFICATION_TYPE":"U","NORAD_CAT_ID":53262,"ELEMENT_SET_NO":999,"REV_AT_EPOCH":19477,"BSTAR":0.00052956053,"MEAN_MOTION_DOT":8.154e-5,"MEAN_MOTION_DDOT":0},{"OBJECT_NAME":"STARLINK-4130","OBJECT_ID":"2022-086X","EPOCH":"2026-01-27T06:22:12.541152","MEAN_MOTION":15.08812961,"ECCENTRICITY":0.00017676,"INCLINATION":53.2197,"RA_OF_ASC_NODE":20.0827,"ARG_OF_PERICENTER":106.6028,"MEAN_ANOMALY":253.5159,"EPHEMERIS_TYPE":0,"CLASSIFICATION_TYPE":"U","NORAD_CAT_ID":53263,"ELEMENT_SET_NO":999,"REV_AT_EPOCH":19481,"BSTAR":0.00052864847,"MEAN_MOTION_DOT":8.129e-5,"MEAN_MOTION_DDOT":0},{"OBJECT_NAME":"STARLINK-3950","OBJECT_ID":"2022-086Y","EPOCH":"2026-01-27T06:32:48.448608","MEAN_MOTION":15.08846165,"ECCENTRICITY":0.00015161,"INCLINATION":53.2193,"RA_OF_ASC_NODE":20.0502,"ARG_OF_PERICENTER":104.5714,"MEAN_ANOMALY":255.5446,"EPHEMERIS_TYPE":0,"CLASSIFICATION_TYPE":"U","NORAD_CAT_ID":53264,"ELEMENT_SET_NO":999,"REV_AT_EPOCH":19481,"BSTAR":3.4375681e-5,"MEAN_MOTION_DOT":2.59e-6,"MEAN_MOTION_DDOT":0},{"OBJECT_NAME":"STARLINK-4097","OBJECT_ID":"2022-086Z","EPOCH":"2026-01-27T06:11:36.860064","MEAN_MOTION":15.08830355,"ECCENTRICITY":0.00013394,"INCLINATION":53.2187,"RA_OF_ASC_NODE":20.1133,"ARG_OF_PERICENTER":88.5405,"MEAN_ANOMALY":271.574,"EPHEMERIS_TYPE":0,"CLASSIFICATION_TYPE":"U","NORAD_CAT_ID":53265,"ELEMENT_SET_NO":999,"REV_AT_EPOCH":19481,"BSTAR":-2.7810499e-5,"MEAN_MOTION_DOT":-7.3e-6,"MEAN_MOTION_DDOT":0},{"OBJECT_NAME":"STARLINK-4058","OBJECT_ID":"2022-086AA","EPOCH":"2026-01-27T06:16:54.536448","MEAN_MOTION":15.08844887,"ECCENTRICITY":0.00016426,"INCLINATION":53.2198,"RA_OF_ASC_NODE":20.0973,"ARG_OF_PERICENTER":82.7291,"MEAN_ANOMALY":277.3888,"EPHEMERIS_TYPE":0,"CLASSIFICATION_TYPE":"U","NORAD_CAT_ID":53266,"ELEMENT_SET_NO":999,"REV_AT_EPOCH":19481,"BSTAR":0.00029238887,"MEAN_MOTION_DOT":4.369e-5,"MEAN_MOTION_DDOT":0},{"OBJECT_NAME":"STARLINK-4060","OBJECT_ID":"2022-086AB","EPOCH":"2026-01-27T06:01:00.764256","MEAN_MOTION":15.08842097,"ECCENTRICITY":0.00014372,"INCLINATION":53.2184,"RA_OF_ASC_NODE":20.1469,"ARG_OF_PERICENTER":85.362,"MEAN_ANOMALY":274.7536,"EPHEMERIS_TYPE":0,"CLASSIFICATION_TYPE":"U","NORAD_CAT_ID":53267,"ELEMENT_SET_NO":999,"REV_AT_EPOCH":19481,"BSTAR":0.00022734677,"MEAN_MOTION_DOT":3.332e-5,"MEAN_MOTION_DDOT":0},{"OBJECT_NAME":"STARLINK-4109","OBJECT_ID":"2022-086AC","EPOCH":"2026-01-27T06:06:18.937440","MEAN_MOTION":15.08833704,"ECCENTRICITY":0.00014132,"INCLINATION":53.2182,"RA_OF_ASC_NODE":20.1295,"ARG_OF_PERICENTER":93.6657,"MEAN_ANOMALY":266.4497,"EPHEMERIS_TYPE":0,"CLASSIFICATION_TYPE":"U","NORAD_CAT_ID":53268,"ELEMENT_SET_NO":999,"REV_AT_EPOCH":19481,"BSTAR":7.535939e-5,"MEAN_MOTION_DOT":9.11e-6,"MEAN_MOTION_DDOT":0},{"OBJECT_NAME":"STARLINK-4057","OBJECT_ID":"2022-086AD","EPOCH":"2026-01-27T04:15:56.390400","MEAN_MOTION":15.09739498,"ECCENTRICITY":0.000107,"INCLINATION":53.2191,"RA_OF_ASC_NODE":10.4721,"ARG_OF_PERICENTER":91.3531,"MEAN_ANOMALY":268.7585,"EPHEMERIS_TYPE":0,"CLASSIFICATION_TYPE":"U","NORAD_CAT_ID":53269,"ELEMENT_SET_NO":999,"REV_AT_EPOCH":19493,"BSTAR":0.020673333,"MEAN_MOTION_DOT":0.0035428,"MEAN_MOTION_DDOT":0},{"OBJECT_NAME":"STARLINK-4122","OBJECT_ID":"2022-086AG","EPOCH":"2026-01-27T04:21:39.824352","MEAN_MOTION":15.08839031,"ECCENTRICITY":0.00015588,"INCLINATION":53.2203,"RA_OF_ASC_NODE":10.4588,"ARG_OF_PERICENTER":95.6788,"MEAN_ANOMALY":264.4382,"EPHEMERIS_TYPE":0,"CLASSIFICATION_TYPE":"U","NORAD_CAT_ID":53272,"ELEMENT_SET_NO":999,"REV_AT_EPOCH":19493,"BSTAR":-6.8287036e-5,"MEAN_MOTION_DOT":-1.375e-5,"MEAN_MOTION_DDOT":0}]
